[{"OBJECT_NAME":"ICEYE-X4","OBJECT_ID":"2019-038D","EPOCH":"2026-03-09T23:53:58.416000","MEAN_MOTION":15.26985132,"ECCENTRICITY":0.00122769,"INCLINATION":97.8888,"RA_OF_ASC_NODE":96.1923,"ARG_OF_PERICENTER":293.9914,"MEAN_ANOMALY":66.0038,"EPHEMERIS_TYPE":0,"CLASSIFICATION_TYPE":"U","NORAD_CAT_ID":44390,"ELEMENT_SET_NO":999,"REV_AT_EPOCH":36665,"BSTAR":0.00049915294,"MEAN_MOTION_DOT":0.00013179,"MEAN_MOTION_DDOT":0},{"OBJECT_NAME":"STARLINK-35583","OBJECT_ID":"2025-270Z","EPOCH":"2026-03-09T00:20:17.852064","MEAN_MOTION":15.27592294,"ECCENTRICITY":0.00030319,"INCLINATION":43.004,"RA_OF_ASC_NODE":59.8937,"ARG_OF_PERICENTER":288.7918,"MEAN_ANOMALY":71.2605,"EPHEMERIS_TYPE":0,"CLASSIFICATION_TYPE":"U","NORAD_CAT_ID":66611,"ELEMENT_SET_NO":999,"REV_AT_EPOCH":1771,"BSTAR":0.0012682922,"MEAN_MOTION_DOT":0.00034819,"MEAN_MOTION_DDOT":0}]
